C/2018 Y1 (Iwamoto),e,160.4029,147.4970,358.0516,144.2384,0.0005690,0.99108081,0.0000,02/07.0349/2019,2000,g 11.5,4.0
# From MPC114605
P/2018 Y2 (Africano),e,11.6826,297.2663,162.4405,7.469311,0.0482818,0.47885029,21.2335,03/17.0/2020,2000,g 11.5,4.0
# From MPC114605
P/2019 A1 (PANSTARRS),e,13.7442,312.3009,150.8316,5.126397,0.0849152,0.56854232,44.4164,03/17.0/2020,2000,g 16.0,4.0
# From MPC114605
P/2019 A2 (ATLAS),e,14.8593,139.4629,324.1691,5.727696,0.0719009,0.38153402,34.6497,03/17.0/2020,2000,g 10.5,4.0
# From MPC114605
P/2019 A3 (PANSTARRS),e,15.3647,31.3201,325.4785,3.147507,0.1765038,0.26521579,104.6854,03/17.0/2020,2000,g 16.0,4.0
# From MPC114605
P/2019 A4 (PANSTARRS),e,13.3206,119.3005,341.6182,2.612792,0.2333710,0.08932118,109.3608,03/17.0/2020,2000,g 15.0,4.0
# From MPC118842
C/2019 A5 (PANSTARRS),e,67.5483,146.6208,356.0236,21.62821,0.0097988,0.70760450,2.7609,03/17.0/2020,2000,g  9.5,4.0
# From MPC114605
P/2019 A6 (Lemmon-PANSTARRS),e,33.2291,280.2741,156.2604,5.366953,0.0792706,0.63892998,44.8516,03/17.0/2020,2000,g 16.0,4.0
# From MPC114605
P/2019 A7 (PANSTARRS),e,17.7743,280.5245,119.3481,3.186514,0.1732728,0.16087782,138.5525,03/17.0/2020,2000,g 13.5,4.0
# From MPC115884
P/2019 A8 (PANSTARRS),e,2.9790,127.7845,21.8213,3.364361,0.1597166,0.44124559,89.5055,03/17.0/2020,2000,g 16.0,4.0
# From MPC118842
C/2019 A9 (PANSTARRS),e,84.3414,278.3685,237.8288,39.02978,0.0040421,0.96344238,0.9476,03/17.0/2020,2000,g 15.0,4.0
# From MPC114606
C/2019 B1 (Africano),e,123.3634,290.4356,174.8694,150.8694,0.0005319,0.98941484,0.0000,03/19.8952/2019,2000,g 16.0,4.0
# From MPC115885
P/2019 B2 (Groeller),e,16.8269,176.4473,358.7886,3.854463,0.1302442,0.37296317,36.8265,03/17.0/2020,2000,g 14.5,4.0
# From MPC115885
C/2019 B3 (PANSTARRS),h,01/19.6097/2021,66.5347,358.4174,263.8798,1.002917,6.823981,2000,5.5,4.0
# From MPEC 2020-AA5
A/2019 C1,e,36.0158,212.3982,319.1910,844.2166,0.0000402,0.99220436,0.0000,05/05.7455/2020,2000,g 10.0,4.0
# From MPC118842
C/2019 D1 (Flewelling),e,34.0957,231.7196,70.4891,138.9384,0.0006018,0.98864385,0.0000,05/11.8574/2019,2000,g 13.0,4.0
# From MPC119997
C/2019 E3 (ATLAS),h,11/11.7045/2023,84.2786,347.2221,280.5873,1.004892,10.316045,2000,2.5,4.0
# From MPC119997
C/2019 F1 (ATLAS-Africano),h,06/22.7636/2021,54.1741,38.7259,251.1021,1.003340,3.596363,2000,5.5,4.0
# From MPC119997
C/2019 F2 (ATLAS),e,19.1875,175.8604,10.9790,16.58552,0.0145919,0.86536138,2.7733,03/17.0/2020,2000,g 12.0,4.0
# From MPEC 2020-AA5
A/2019 G2,e,159.2115,208.1460,82.6526,721.1728,0.0000509,0.99682275,0.0000,12/10.0579/2019,2000,g 16.5,2.0
# From MPC118094
A/2019 G4,h,09/15.7548/2018,138.3827,130.4662,287.8779,1.000662,5.858750,2000,13.0,2.0
# From MPC114607
P/2019 GG21 (PANSTARRS),e,6.0838,340.6005,208.3476,7.465708,0.0483167,0.47287506,15.0693,03/17.0/2020,2000,g 12.0,4.0
# From MPC115885
C/2019 H1 (NEOWISE),e,104.5790,269.1858,19.2882,226.9265,0.0002883,0.99186959,0.0000,04/27.7371/2019,2000,g 15.5,4.0
# From MPC118842
C/2019 J1 (Lemmon),e,24.5506,98.0881,167.7757,70.20557,0.0016755,0.96469613,0.5743,03/17.0/2020,2000,g 12.0,4.0
# From MPC115885
C/2019 J2 (Palomar),e,105.1350,25.4712,98.7078,693.0020,0.0000540,0.99750796,0.0000,07/19.7235/2019,2000,g 13.0,4.0
# From MPC117071
C/2019 J3 (ATLAS),e,131.4138,270.5176,16.5483,27715,0.0000002,0.99991436,0.0000,08/01.8700/2019,2000,g 13.5,4.0
# From MPC117071
C/2019 JU6 (ATLAS),e,148.2930,21.7365,94.8696,329.2005,0.0001650,0.99378826,0.0000,05/31.8634/2019,2000,g 14.5,4.0
# From MPC119997
C/2019 K1 (ATLAS),e,87.1496,73.3749,265.7063,10676,0.0000009,0.99981148,0.0000,02/12.9623/2020,2000,g 10.0,4.0
# From MPC119997
C/2019 K4 (Ye),e,105.3037,180.1652,139.7745,2033,0.0000107,0.99888883,0.0000,06/16.4124/2019,2000,g 12.5,4.0
# From MPC119997
C/2019 K5 (Young),e,15.3147,177.1834,174.9283,153.3822,0.0005188,0.98673167,0.0000,06/22.7732/2019,2000,g 13.0,4.0
# From MPC117071
A/2019 K6,e,132.3740,42.9398,187.6083,1529,0.0000165,0.99743103,0.0000,05/20.1314/2020,2000,g 13.6,2.0
# From MPC118095
C/2019 K7 (Smith),h,06/16.8511/2020,103.5170,307.9191,27.2845,1.002076,4.474960,2000,6.2,4.0
# From MPC119997
C/2019 K8 (ATLAS),e,93.2227,291.0449,85.3625,1656,0.0000146,0.99807115,0.0000,07/21.2692/2019,2000,g 11.5,4.0
# From MPC118095
C/2019 L1 (PANSTARRS),e,9.9934,254.4075,49.9278,9.832967,0.0319652,0.70605894,6.9909,03/17.0/2020,2000,g 13.5,4.0
# From MPC115886
C/2019 L2 (NEOWISE),e,152.1814,12.5806,18.7500,24.95566,0.0079059,0.93509007,2.7676,03/17.0/2020,2000,g 16.0,4.0
# From MPC119997
C/2019 L3 (ATLAS),h,01/09.9028/2022,48.3664,290.7851,171.6699,1.000384,3.552899,2000,4.5,4.0
# From MPC118095
C/2019 LB7 (Kleyna),e,164.2372,3.3121,335.9624,35.26418,0.0047066,0.92956333,1.6739,03/17.0/2020,2000,g 17.0,4.0
# From MPC118843
P/2019 M2 (ATLAS),e,12.2818,307.6004,332.5334,3.025615,0.1872766,0.64847728,50.2525,03/17.0/2020,2000,g 21.2,4.0
# From MPC118095
C/2019 M3 (ATLAS),h,01/03.0174/2019,99.4406,154.8956,87.9427,1.001989,2.418279,2000,12.2,4.0
# From MPC119997
C/2019 N1 (ATLAS),e,82.4244,13.5773,193.4439,18712,0.0000004,0.99990890,0.0000,12/01.7922/2020,2000,g  7.5,4.0
# From MPEC 2020-AA5
A/2019 O2,e,93.2864,48.3410,129.6513,57.51656,0.0022595,0.83165862,357.4778,03/17.0/2020,2000,g  9.5,2.0
# From MPC118843
A/2019 O3,h,03/07.2389/2021,89.8136,300.3801,60.0111,1.001421,8.819211,2000,10.0,2.0
# From MPC117072
A/2019 O4,e,115.0853,354.9196,61.8073,32.87687,0.0052284,0.88914864,0.1886,03/17.0/2020,2000,g 15.5,2.0
# From MPEC 2020-AA5
A/2019 Q1,h,07/19.7368/2020,155.7202,42.3370,55.9257,1.000488,4.996726,2000,12.5,2.0
# From MPC117072
A/2019 Q2,e,159.0261,187.9916,176.2938,58.27384,0.0022156,0.97841851,0.0000,07/22.3801/2019,2000,g 18.0,2.0
# From MPC117072
C/2019 Q3 (PANSTARRS),h,08/20.9653/2018,65.5315,151.3252,152.6401,1.004588,7.250835,2000,8.5,4.0
# From MPC117072
P/2019 S2 (PANSTARRS),e,10.4732,93.1264,216.7401,4.734276,0.0956806,0.20678385,37.3326,03/17.0/2020,2000,g 13.5,4.0
# From MPC118096
P/2019 S3 (PANSTARRS),e,8.6925,150.1667,212.9643,3.413900,0.1562528,0.47074401,31.8566,03/17.0/2020,2000,g 18.3,4.0
# From MPEC 2020-AA5
A/2019 S4,e,92.0238,63.1680,71.3564,239.7168,0.0002656,0.98564286,0.0000,04/07.9479/2020,2000,g 14.5,2.0
# From MPC118843
A/2019 T1,e,120.8684,6.9492,90.9956,38.21230,0.0041725,0.88794050,358.7354,03/17.0/2020,2000,g 13.0,2.0
# From MPEC 2020-AA5
A/2019 T2,e,111.4653,155.6392,239.3943,1894,0.0000120,0.99860320,0.0000,04/22.3251/2021,2000,g 12.5,2.0
# From MPC119998
C/2019 T3 (ATLAS),e,121.8624,139.5137,112.2531,11437,0.0000008,0.99948006,0.0000,03/02.4245/2021,2000,g  6.8,4.0
# From MPC119998
C/2019 T4 (ATLAS),e,53.6164,199.9797,351.2052,1049,0.0000290,0.99595596,0.0000,06/09.3156/2022,2000,g  5.0,4.0
# From MPC119998
P/2019 T5 (ATLAS),e,33.4226,247.6963,189.6170,8.016455,0.0434241,0.80928254,9.9380,03/17.0/2020,2000,g 15.0,4.0
# From MPC119998
P/2019 T6 (PANSTARRS),e,18.6966,71.3110,328.9097,5.432927,0.0778311,0.62231824,10.1366,03/17.0/2020,2000,g 15.5,4.0
# From MPC118096
P/2019 U4 (PANSTARRS),e,11.6907,200.0366,180.9583,3.520068,0.1492373,0.47528404,26.9590,03/17.0/2020,2000,g 19.0,4.0
# From MPC118844
A/2019 U5,h,03/30.5121/2023,113.5279,2.7041,181.6207,1.000326,3.621192,2000,10.0,2.0
# From MPEC 2020-AA5
A/2019 U6,e,61.0017,235.7063,329.6582,436.7698,0.0001080,0.99790674,0.0000,06/18.8218/2020,2000,g 14.5,2.0
# From MPC119998
C/2019 V1 (Borisov),e,61.8643,83.2063,51.2000,2609,0.0000074,0.99881292,0.0000,07/16.5752/2020,2000,g 11.0,4.0
# From MPC119998
P/2019 V2 (Groeller),e,11.8022,189.1704,336.3608,7.519258,0.0478015,0.33284651,349.4838,03/17.0/2020,2000,g 10.0,4.0
# From MPC119998
P/2019 W1 (PANSTARRS),e,23.4604,35.4199,18.7358,4.550604,0.1015314,0.26610128,31.8898,03/17.0/2020,2000,g 12.9,4.0
# From MPC119998
P/2019 X1 (Pruyne),e,10.2450,43.7188,36.6405,6.177804,0.0641879,0.30339113,15.4601,03/17.0/2020,2000,g 10.4,4.0
# From MPC119999
C/2019 Y1 (ATLAS),e,73.2513,31.5194,57.9774,86.86572,0.0012174,0.99042685,0.0000,03/15.5990/2020,2000,g 13.7,4.0
# From MPC119999
P/2019 Y2 (Fuls),e,4.9020,81.0805,91.7214,3.528780,0.1486850,0.39617572,6.8957,03/17.0/2020,2000,g 13.2,4.0
# From MPEC 2020-C98
P/2019 Y3 (Catalina),e,24.6352,139.3820,2.2699,2.997961,0.1898739,0.69578610,17.9505,03/17.0/2020,2000,g 18.5,4.0
# From MPEC 2020-C98
C/2019 Y4 (ATLAS),e,45.3907,120.5782,177.3988,312.2329,0.0001786,0.99918975,0.0000,05/31.0442/2020,2000,g 12.0,4.0
# From MPEC 2020-C98
A/2019 Y5,e,82.8366,51.7764,303.4993,778.8109,0.0000453,0.99368983,0.0000,08/18.1491/2019,2000,g 14.0,2.0
# From MPEC 2020-C98
A/2020 A1,e,149.0019,119.3250,302.3675,21.87829,0.0096313,0.92379022,1.0202,03/17.0/2020,2000,g 18.0,2.0
# From MPEC 2020-C98
C/2020 A2 (Iwamoto),h,01/08.3490/2020,120.7476,286.3719,68.2361,1.000215,0.978288,2000,13.5,4.0
# From MPEC 2020-C98
C/2020 A3 (ATLAS),h,07/29.4298/2019,146.7764,120.3790,271.1540,1.024159,5.839286,2000,8.0,4.0
# From MPEC 2020-C98
A/2020 B1,e,18.5140,310.0335,154.7938,52.39255,0.0025990,0.96664069,0.2132,03/17.0/2020,2000,g 21.0,2.0
# From MPC xxxxx
C/2020 B2 (Lemmon),e,55.5299,354.4463,142.7561,60.29122,0.0021053,0.95417492,0.1125,03/17.0/2020,2000,g 14.5,4.0
# From MPC xxxxx
C/2020 B3 (Rankin),e,20.7569,185.7960,325.9241,218.3120,0.0003056,0.98462958,0.0000,10/22.8733/2019,2000,g 11.5,4.0
# From  98, 1083
1P/Halley,e,162.3137,58.1952,111.1331,17.86916,0.0130481,0.96625995,162.8141,03/17.0/2020,2000,g  4.0,6.0
# From MPC118097
2P/Encke,e,11.7647,334.5530,186.5624,2.215251,0.2989300,0.84800347,329.8544,03/17.0/2020,2000,g 11.5,6.0
# From MPEC 2015-A10
4P/Faye,e,8.0157,193.3774,206.7504,3.823797,0.1318141,0.57856430,288.6972,03/17.0/2020,2000,g  8.0,6.0
# From MPEC 2015-S97
6P/d'Arrest,e,19.5102,138.9298,178.0782,3.498432,0.1506239,0.61249223,277.1841,03/17.0/2020,2000,g  9.0,4.0
# From MPEC 2015-E14
7P/Pons-Winnecke,e,22.3646,93.3807,172.5589,3.415753,0.1561257,0.63854471,291.9184,03/17.0/2020,2000,g  9.0,4.0
# From MPC 75715
8P/Tuttle,e,54.9123,270.2065,207.4960,5.700986,0.0724068,0.81998620,321.7077,03/17.0/2020,2000,g  9.0,4.0
